#aV2006  6 29  0  0   .00000000      96 DD+AD WGS84 FIT  NGA
## 1381 345600.00000000   900.00000000 53915  .0000000000000
+   29     1  2  3  4  5  6  7  8  9 10 11 13 14 15 16 17 18
+         19 20 21 22 23 24 25 26 27 28 29 30  0  0  0  0  0
+          0  0  0  0  0  0  0  0  0  0  0  0  0  0  0  0  0
+          0  0  0  0  0  0  0  0  0  0  0  0  0  0  0  0  0
+          0  0  0  0  0  0  0  0  0  0  0  0  0  0  0  0  0
++         0  0  0  0  0  0  0  0  0  0  0  0  0  0  0  0  0
++         0  0  0  0  0  0  0  0  0  0  0  0  0  0  0  0  0
++         0  0  0  0  0  0  0  0  0  0  0  0  0  0  0  0  0
++         0  0  0  0  0  0  0  0  0  0  0  0  0  0  0  0  0
++         0  0  0  0  0  0  0  0  0  0  0  0  0  0  0  0  0
%c cc cc ccc ccc cccc cccc cccc cccc ccccc ccccc ccccc ccccc
%c cc cc ccc ccc cccc cccc cccc cccc ccccc ccccc ccccc ccccc
%f  0.0000000  0.000000000  0.00000000000  0.000000000000000
%f  0.0000000  0.000000000  0.00000000000  0.000000000000000
%i    0    0    0    0      0      0      0      0         0
%i    0    0    0    0      0      0      0      0         0
/*      NGA, ST. LOUIS,MO.                                  
/*   EPHEMERIS COMPUTED FROM  3 DAYS OF DATA                
/* CCCCCCCCCCCCCCCCCCCCCCCCCCCCCCCCCCCCCCCCCCCCCCCCCCCCCCCCC
/* CCCCCCCCCCCCCCCCCCCCCCCCCCCCCCCCCCCCCCCCCCCCCCCCCCCCCCCCC
*  2006  6 29  8 45   .00000000                                                 
P  1  -7420.184063  17171.416144  19027.804413     62.665450                    
V  1 -21983.575739   8928.040057 -16850.659769       .020599                    
P  2  -4901.281272 -18639.798213  18114.455307      9.077548                    
V  2  20573.488619  11418.205100  16864.388233       .033791                    
P  3   -596.566506  17878.806234 -19710.267054     75.059864                    
V  3 -21944.553311  11858.910866  11831.042557       .870982                    
P  4   8171.661385 -13105.034882  21563.230513    264.057614                    
V  4  22901.957307  15262.876019    940.773918       .080096                    
P  5 -13166.194809 -15001.672502  17399.568627    175.216511                    
V  5   1394.415873 -22547.459773 -18005.680828       .383031                    
P  6 -24171.591550   4516.396445  10328.962665    577.792422                    
V  6   9776.876864  -8921.733189  27231.084280       .091180                    
P  7 -17553.786360  17778.228568  -8848.449143    541.598690                    
V  7 -11781.776616   3047.499261  28279.130672      -.001622                    
P  8  15712.996310  -6110.353207 -20765.092691    -70.717556                    
V  8  20717.582116  15556.503336  10777.065972      -.013962                    
P  9 -20863.164652 -16203.690552  -4500.646995     26.061783                    
V  9   5530.076784    465.058901 -30917.030856       .015402                    
P 10  -1395.958793 -25900.299145  -4986.946657     85.784825                    
V 10   3070.510092  -6036.551981  31395.350673       .006229                    
P 11  23147.950622  13029.489729  -2725.766268    336.304796                    
V 11  -4978.369948   2701.108497 -29862.932019       .022658                    
P 13  24256.266708  -4470.928875   9691.463046     73.160830                    
V 13 -10499.126193   6849.600606  29208.079525       .030163                    
P 14 -20254.367452  15440.279829   7496.338106    -10.964761                    
V 14  -9308.874143   2413.147467 -30436.355325       .008197                    
P 15 -15666.845905   6393.530958 -20716.015368    636.464505                    
V 15 -20111.812511 -16305.841525   9840.424844       .064044                    
P 16  -2047.649217  26416.582599    473.134973     52.943286                    
V 16  -2830.245768   -684.279658  31856.549846       .027357                    
P 17  20680.895549 -15347.149143   6278.645931     99.763475                    
V 17   8414.947104  -1083.340597 -30437.944788       .006784                    
P 18 -15317.721352   4917.819135 -20976.556798   -241.148682                    
V 18   1780.998206 -26902.528382  -7878.325719      -.014626                    
P 19  10104.477167  11988.461739 -21333.851723     -2.564460                    
V 19 -24923.150777  11283.966312  -5381.942162       .022835                    
P 20  13375.751008  11582.180811  19723.764454    -24.809013                    
V 20  -2371.599314  25170.433942 -13083.600519       .004495                    
P 21 -21426.947867  -1018.276925 -15931.000593     38.546028                    
V 21 -15345.613867 -13263.914280  20857.479282       .023479                    
P 22 -11990.858404  19002.233478 -13997.751023    111.308028                    
V 22   -408.623982 -18199.209648 -24109.351122       .039396                    
P 23  18871.410428   4416.038989  18140.409225    138.955082                    
V 23 -20024.283203  11692.822381  17723.230545      -.004844                    
P 24  16547.981568  -5548.432258  20330.947473     16.804884                    
V 24  19851.920720  15585.700139 -11778.691383       .028506                    
P 25  -1212.322026  16376.362289  21249.983383     42.468591                    
V 25 -23437.067274 -11544.216245   7843.809932       .753487                    
P 26  -7934.262002 -12541.412759 -22448.734667   -162.593352                    
V 26  24866.355488 -11579.651584  -1794.423055      -.126853                    
P 27  22211.799913   1256.853121 -14140.248206     55.617322                    
V 27  15341.115607  11205.698623  23758.190930       .017454                    
P 28  12913.082477 -15549.826255 -16756.239377     24.229071                    
V 28    436.535115  22069.504261 -20139.890100      -.007321                    
P 29  -4102.010876 -14137.175656 -21856.645547    624.582853                    
V 29  25284.937652 -12632.477475   3664.770931       .036755                    
P 30 -15395.521105  -1331.994694  21322.949570      2.111161                    
V 30    628.066540 -27794.179626  -1148.238120       .011100                    
EOF
